[{"OBJECT_NAME":"CUBESAT XI-IV (CO-57)","OBJECT_ID":"2003-031J","EPOCH":"2026-03-09T22:11:01.387104","MEAN_MOTION":14.23561441,"ECCENTRICITY":0.00104004,"INCLINATION":98.681,"RA_OF_ASC_NODE":78.5124,"ARG_OF_PERICENTER":128.1826,"MEAN_ANOMALY":232.0291,"EPHEMERIS_TYPE":0,"CLASSIFICATION_TYPE":"U","NORAD_CAT_ID":27848,"ELEMENT_SET_NO":999,"REV_AT_EPOCH":17725,"BSTAR":0.00017577502,"MEAN_MOTION_DOT":3.57e-6,"MEAN_MOTION_DDOT":0},{"OBJECT_NAME":"COSMOS 1275 DEB","OBJECT_ID":"1981-053LE","EPOCH":"2026-03-08T12:25:32.126880","MEAN_MOTION":14.23046239,"ECCENTRICITY":0.0034673,"INCLINATION":82.8188,"RA_OF_ASC_NODE":102.7423,"ARG_OF_PERICENTER":214.7436,"MEAN_ANOMALY":145.1483,"EPHEMERIS_TYPE":0,"CLASSIFICATION_TYPE":"U","NORAD_CAT_ID":17635,"ELEMENT_SET_NO":999,"REV_AT_EPOCH":8385,"BSTAR":0.001856402,"MEAN_MOTION_DOT":4.225e-5,"MEAN_MOTION_DDOT":0}]
